[{"OBJECT_NAME":"STARLINK-34713","OBJECT_ID":"2025-157C","EPOCH":"2026-03-04T20:28:58.277856","MEAN_MOTION":15.30252632,"ECCENTRICITY":0.0001362,"INCLINATION":53.1618,"RA_OF_ASC_NODE":8.1167,"ARG_OF_PERICENTER":88.2593,"MEAN_ANOMALY":271.8564,"EPHEMERIS_TYPE":0,"CLASSIFICATION_TYPE":"U","NORAD_CAT_ID":64906,"ELEMENT_SET_NO":999,"REV_AT_EPOCH":3533,"BSTAR":0.0013138,"MEAN_MOTION_DOT":0.00038818,"MEAN_MOTION_DDOT":0},{"OBJECT_NAME":"STARLINK-34712","OBJECT_ID":"2025-157D","EPOCH":"2026-03-04T19:46:27.085440","MEAN_MOTION":15.3021591,"ECCENTRICITY":0.0001508,"INCLINATION":53.1619,"RA_OF_ASC_NODE":7.9276,"ARG_OF_PERICENTER":145.23,"MEAN_ANOMALY":214.8799,"EPHEMERIS_TYPE":0,"CLASSIFICATION_TYPE":"U","NORAD_CAT_ID":64907,"ELEMENT_SET_NO":999,"REV_AT_EPOCH":3538,"BSTAR":0.0016466,"MEAN_MOTION_DOT":0.00048752,"MEAN_MOTION_DDOT":0},{"OBJECT_NAME":"STARLINK-34702","OBJECT_ID":"2025-157E","EPOCH":"2026-03-04T20:18:21.941856","MEAN_MOTION":15.30212224,"ECCENTRICITY":0.0001612,"INCLINATION":53.1622,"RA_OF_ASC_NODE":8.0662,"ARG_OF_PERICENTER":101.9195,"MEAN_ANOMALY":258.1987,"EPHEMERIS_TYPE":0,"CLASSIFICATION_TYPE":"U","NORAD_CAT_ID":64908,"ELEMENT_SET_NO":999,"REV_AT_EPOCH":3538,"BSTAR":0.0019098,"MEAN_MOTION_DOT":0.00056656,"MEAN_MOTION_DDOT":0},{"OBJECT_NAME":"STARLINK-34687","OBJECT_ID":"2025-157F","EPOCH":"2026-03-04T03:28:05.479104","MEAN_MOTION":15.30199079,"ECCENTRICITY":0.00012748,"INCLINATION":53.1605,"RA_OF_ASC_NODE":11.5093,"ARG_OF_PERICENTER":85.9493,"MEAN_ANOMALY":274.1653,"EPHEMERIS_TYPE":0,"CLASSIFICATION_TYPE":"U","NORAD_CAT_ID":64909,"ELEMENT_SET_NO":999,"REV_AT_EPOCH":3522,"BSTAR":0.00101515,"MEAN_MOTION_DOT":0.00029826,"MEAN_MOTION_DDOT":0},{"OBJECT_NAME":"STARLINK-34642","OBJECT_ID":"2025-157G","EPOCH":"2026-03-04T19:57:05.214240","MEAN_MOTION":15.30226097,"ECCENTRICITY":0.0001232,"INCLINATION":53.1625,"RA_OF_ASC_NODE":7.9755,"ARG_OF_PERICENTER":116.3932,"MEAN_ANOMALY":243.7196,"EPHEMERIS_TYPE":0,"CLASSIFICATION_TYPE":"U","NORAD_CAT_ID":64910,"ELEMENT_SET_NO":999,"REV_AT_EPOCH":3538,"BSTAR":0.0012194,"MEAN_MOTION_DOT":0.0003596,"MEAN_MOTION_DDOT":0},{"OBJECT_NAME":"STARLINK-34718","OBJECT_ID":"2025-157H","EPOCH":"2026-03-04T05:17:19.973184","MEAN_MOTION":15.30225706,"ECCENTRICITY":8.191e-5,"INCLINATION":53.1612,"RA_OF_ASC_NODE":11.2715,"ARG_OF_PERICENTER":108.089,"MEAN_ANOMALY":252.02,"EPHEMERIS_TYPE":0,"CLASSIFICATION_TYPE":"U","NORAD_CAT_ID":64911,"ELEMENT_SET_NO":999,"REV_AT_EPOCH":3528,"BSTAR":0.0015916181,"MEAN_MOTION_DOT":0.00047117,"MEAN_MOTION_DDOT":0},{"OBJECT_NAME":"STARLINK-34711","OBJECT_ID":"2025-157J","EPOCH":"2026-03-04T06:42:16.386912","MEAN_MOTION":15.30221931,"ECCENTRICITY":0.00011614,"INCLINATION":53.1599,"RA_OF_ASC_NODE":10.9297,"ARG_OF_PERICENTER":46.2783,"MEAN_ANOMALY":313.8314,"EPHEMERIS_TYPE":0,"CLASSIFICATION_TYPE":"U","NORAD_CAT_ID":64912,"ELEMENT_SET_NO":999,"REV_AT_EPOCH":3529,"BSTAR":0.0015804697,"MEAN_MOTION_DOT":0.00046777,"MEAN_MOTION_DDOT":0},{"OBJECT_NAME":"STARLINK-34659","OBJECT_ID":"2025-157K","EPOCH":"2026-03-04T20:19:53.343552","MEAN_MOTION":15.30208223,"ECCENTRICITY":0.0001675,"INCLINATION":53.1621,"RA_OF_ASC_NODE":8.0721,"ARG_OF_PERICENTER":125.3143,"MEAN_ANOMALY":234.8015,"EPHEMERIS_TYPE":0,"CLASSIFICATION_TYPE":"U","NORAD_CAT_ID":64913,"ELEMENT_SET_NO":999,"REV_AT_EPOCH":3533,"BSTAR":0.0011403,"MEAN_MOTION_DOT":0.00033576,"MEAN_MOTION_DDOT":0},{"OBJECT_NAME":"STARLINK-34571","OBJECT_ID":"2025-157L","EPOCH":"2026-03-04T19:26:51.598752","MEAN_MOTION":15.30217716,"ECCENTRICITY":9.65e-5,"INCLINATION":53.1608,"RA_OF_ASC_NODE":8.5522,"ARG_OF_PERICENTER":88.0899,"MEAN_ANOMALY":272.0212,"EPHEMERIS_TYPE":0,"CLASSIFICATION_TYPE":"U","NORAD_CAT_ID":64914,"ELEMENT_SET_NO":999,"REV_AT_EPOCH":3532,"BSTAR":0.0013144,"MEAN_MOTION_DOT":0.00038795,"MEAN_MOTION_DDOT":0},{"OBJECT_NAME":"STARLINK-34636","OBJECT_ID":"2025-157M","EPOCH":"2026-03-04T03:22:00.382944","MEAN_MOTION":15.30225299,"ECCENTRICITY":0.00010227,"INCLINATION":53.1597,"RA_OF_ASC_NODE":11.4789,"ARG_OF_PERICENTER":97.3315,"MEAN_ANOMALY":262.7802,"EPHEMERIS_TYPE":0,"CLASSIFICATION_TYPE":"U","NORAD_CAT_ID":64915,"ELEMENT_SET_NO":999,"REV_AT_EPOCH":3527,"BSTAR":0.00081271119,"MEAN_MOTION_DOT":0.00023807,"MEAN_MOTION_DDOT":0},{"OBJECT_NAME":"STARLINK-34695","OBJECT_ID":"2025-157N","EPOCH":"2026-03-04T00:29:48.527520","MEAN_MOTION":15.39844375,"ECCENTRICITY":5.852e-5,"INCLINATION":53.1617,"RA_OF_ASC_NODE":10.0249,"ARG_OF_PERICENTER":86.3729,"MEAN_ANOMALY":273.7343,"EPHEMERIS_TYPE":0,"CLASSIFICATION_TYPE":"U","NORAD_CAT_ID":64916,"ELEMENT_SET_NO":999,"REV_AT_EPOCH":3528,"BSTAR":0.0017076293,"MEAN_MOTION_DOT":0.00069034,"MEAN_MOTION_DDOT":0},{"OBJECT_NAME":"STARLINK-34653","OBJECT_ID":"2025-157P","EPOCH":"2026-03-04T03:56:57.624576","MEAN_MOTION":15.3021236,"ECCENTRICITY":0.00010307,"INCLINATION":53.1602,"RA_OF_ASC_NODE":11.6305,"ARG_OF_PERICENTER":106.6581,"MEAN_ANOMALY":253.4533,"EPHEMERIS_TYPE":0,"CLASSIFICATION_TYPE":"U","NORAD_CAT_ID":64917,"ELEMENT_SET_NO":999,"REV_AT_EPOCH":3522,"BSTAR":0.0011022903,"MEAN_MOTION_DOT":0.00032443,"MEAN_MOTION_DDOT":0},{"OBJECT_NAME":"STARLINK-34611","OBJECT_ID":"2025-157Q","EPOCH":"2026-03-04T19:35:58.473600","MEAN_MOTION":15.30214118,"ECCENTRICITY":0.0001135,"INCLINATION":53.1603,"RA_OF_ASC_NODE":8.5933,"ARG_OF_PERICENTER":113.0456,"MEAN_ANOMALY":247.0664,"EPHEMERIS_TYPE":0,"CLASSIFICATION_TYPE":"U","NORAD_CAT_ID":64918,"ELEMENT_SET_NO":999,"REV_AT_EPOCH":3537,"BSTAR":0.0012012,"MEAN_MOTION_DOT":0.00035402,"MEAN_MOTION_DDOT":0},{"OBJECT_NAME":"STARLINK-34599","OBJECT_ID":"2025-157R","EPOCH":"2026-03-04T06:16:26.216256","MEAN_MOTION":15.30219034,"ECCENTRICITY":0.00012162,"INCLINATION":53.1607,"RA_OF_ASC_NODE":10.8048,"ARG_OF_PERICENTER":89.5578,"MEAN_ANOMALY":270.5562,"EPHEMERIS_TYPE":0,"CLASSIFICATION_TYPE":"U","NORAD_CAT_ID":64919,"ELEMENT_SET_NO":999,"REV_AT_EPOCH":3529,"BSTAR":0.0017561471,"MEAN_MOTION_DOT":0.00052048,"MEAN_MOTION_DDOT":0},{"OBJECT_NAME":"STARLINK-34069","OBJECT_ID":"2025-157S","EPOCH":"2026-03-04T05:21:53.811072","MEAN_MOTION":15.30205998,"ECCENTRICITY":9.225e-5,"INCLINATION":53.1608,"RA_OF_ASC_NODE":11.2894,"ARG_OF_PERICENTER":94.0099,"MEAN_ANOMALY":266.1007,"EPHEMERIS_TYPE":0,"CLASSIFICATION_TYPE":"U","NORAD_CAT_ID":64920,"ELEMENT_SET_NO":999,"REV_AT_EPOCH":3528,"BSTAR":0.0017427938,"MEAN_MOTION_DOT":0.00051626,"MEAN_MOTION_DDOT":0},{"OBJECT_NAME":"STARLINK-34699","OBJECT_ID":"2025-157T","EPOCH":"2026-03-04T06:46:49.966464","MEAN_MOTION":15.30237542,"ECCENTRICITY":0.00011361,"INCLINATION":53.1603,"RA_OF_ASC_NODE":10.9489,"ARG_OF_PERICENTER":96.7338,"MEAN_ANOMALY":263.3792,"EPHEMERIS_TYPE":0,"CLASSIFICATION_TYPE":"U","NORAD_CAT_ID":64921,"ELEMENT_SET_NO":999,"REV_AT_EPOCH":3529,"BSTAR":0.0028228131,"MEAN_MOTION_DOT":0.00084295,"MEAN_MOTION_DDOT":0}]
