STARLINK-34713          
1 64906U 25157C   26063.85345229  .00038818  00000+0  13138-2 0  9995
2 64906  53.1618   8.1167 0001362  88.2593 271.8564 15.30252632 35337
STARLINK-34712          
1 64907U 25157D   26063.82392460  .00048752  00000+0  16466-2 0  9997
2 64907  53.1619   7.9276 0001508 145.2300 214.8799 15.30215910 35389
STARLINK-34702          
1 64908U 25157E   26063.84608729  .00056656  00000+0  19098-2 0  9994
2 64908  53.1622   8.0662 0001612 101.9195 258.1987 15.30212224 35387
STARLINK-34687          
1 64909U 25157F   26063.14450786  .00029826  00000+0  10152-2 0  9997
2 64909  53.1605  11.5093 0001274  85.9493 274.1653 15.30199079 35225
STARLINK-34642          
1 64910U 25157G   26063.83131035  .00035960  00000+0  12194-2 0  9992
2 64910  53.1625   7.9755 0001232 116.3932 243.7196 15.30226097 35386
STARLINK-34718          
1 64911U 25157H   26063.22037006  .00047117  00000+0  15916-2 0  9991
2 64911  53.1612  11.2715 0000819 108.0890 252.0200 15.30225706 35282
STARLINK-34711          
1 64912U 25157J   26063.27935633  .00046777  00000+0  15805-2 0  9998
2 64912  53.1599  10.9297 0001161  46.2783 313.8314 15.30221931 35292
STARLINK-34659          
1 64913U 25157K   26063.84714518  .00033576  00000+0  11403-2 0  9992
2 64913  53.1621   8.0721 0001675 125.3143 234.8015 15.30208223 35332
STARLINK-34571          
1 64914U 25157L   26063.81031943  .00038795  00000+0  13144-2 0  9996
2 64914  53.1608   8.5522 0000965  88.0899 272.0212 15.30217716 35325
STARLINK-34636          
1 64915U 25157M   26063.14028221  .00023807  00000+0  81271-3 0  9993
2 64915  53.1597  11.4789 0001022  97.3315 262.7802 15.30225299 35272
STARLINK-34695          
1 64916U 25157N   26063.02070055  .00069034  00000+0  17076-2 0  9996
2 64916  53.1617  10.0249 0000585  86.3729 273.7343 15.39844375 35286
STARLINK-34653          
1 64917U 25157P   26063.16455584  .00032443  00000+0  11023-2 0  9996
2 64917  53.1602  11.6305 0001030 106.6581 253.4533 15.30212360 35223
STARLINK-34611          
1 64918U 25157Q   26063.81664900  .00035402  00000+0  12012-2 0  9990
2 64918  53.1603   8.5933 0001135 113.0456 247.0664 15.30214118 35379
STARLINK-34599          
1 64919U 25157R   26063.26141454  .00052048  00000+0  17561-2 0  9993
2 64919  53.1607  10.8048 0001216  89.5578 270.5562 15.30219034 35290
STARLINK-34069          
1 64920U 25157S   26063.22353948  .00051626  00000+0  17428-2 0  9997
2 64920  53.1608  11.2894 0000922  94.0099 266.1007 15.30205998 35287
STARLINK-34699          
1 64921U 25157T   26063.28252276  .00084295  00000+0  28228-2 0  9994
2 64921  53.1603  10.9489 0001136  96.7338 263.3792 15.30237542 35293
